{"type": "FeatureCollection", "features": [ {"type": "Feature", "properties": {"norad_id": 40664, "name": "SKY MEXICO-1", "group": "intelsat", "lat": 0.020688915120634872, "lon": 174.1247860507318, "alt_km": 35788.66109286714, "timestamp": "2025-12-10T11:33:53.059324+00:00", "meta": {"OBJECT_NAME": "SKY MEXICO-1", "OBJECT_ID": "2015-026B", "EPOCH": "2025-12-10T04:15:38.659392", "MEAN_MOTION": 1.00270655, "ECCENTRICITY": 0.0002726, "INCLINATION": 0.029, "RA_OF_ASC_NODE": 67.5493, "ARG_OF_PERICENTER": 207.8932, "MEAN_ANOMALY": 148.8575, "EPHEMERIS_TYPE": 0, "CLASSIFICATION_TYPE": "U", "NORAD_CAT_ID": 40664, "ELEMENT_SET_NO": 999, "REV_AT_EPOCH": 3855, "BSTAR": 0, "MEAN_MOTION_DOT": -2.31e-06, "MEAN_MOTION_DDOT": 0}, "tle": {"line1": "1 40664U 15026B   25344.17753078 -.00000231  00000+0  00000+0 0  9995", "line2": "2 40664   0.0290  67.5493 0002726 207.8932 148.8575  1.00270655 38550"}}, "geometry": {"type": "Point", "coordinates": [174.1247860507318, 0.020688915120634872]}}, {"type": "Feature", "properties": {"norad_id": 40874, "name": "INTELSAT 34 (IS-34)", "group": "intelsat", "lat": -0.02227126458885107, "lon": -162.57084079744834, "alt_km": 35784.60934911572, "timestamp": "2025-12-10T11:33:53.059335+00:00", "meta": {"OBJECT_NAME": "INTELSAT 34 (IS-34)", "OBJECT_ID": "2015-039A", "EPOCH": "2025-12-10T03:59:38.770080", "MEAN_MOTION": 1.00269978, "ECCENTRICITY": 5.55e-05, "INCLINATION": 0.0112, "RA_OF_ASC_NODE": 310.175, "ARG_OF_PERICENTER": 217.3462, "MEAN_ANOMALY": 276.0397, "EPHEMERIS_TYPE": 0, "CLASSIFICATION_TYPE": "U", "NORAD_CAT_ID": 40874, "ELEMENT_SET_NO": 999, "REV_AT_EPOCH": 3773, "BSTAR": 0, "MEAN_MOTION_DOT": -2.82e-06, "MEAN_MOTION_DDOT": 0}, "tle": {"line1": "1 40874U 15039A   25344.16642095 -.00000282  00000+0  00000+0 0  9993", "line2": "2 40874   0.0112 310.1750 0000555 217.3462 276.0397  1.00269978 37732"}}, "geometry": {"type": "Point", "coordinates": [-162.57084079744834, -0.02227126458885107]}}, {"type": "Feature", "properties": {"norad_id": 41581, "name": "INTELSAT 31 (IS-31)", "group": "intelsat", "lat": -0.0120468187970688, "lon": 157.83967112451566, "alt_km": 35782.51754671498, "timestamp": "2025-12-10T11:33:53.059346+00:00", "meta": {"OBJECT_NAME": "INTELSAT 31 (IS-31)", "OBJECT_ID": "2016-035A", "EPOCH": "2025-12-09T19:58:11.640288", "MEAN_MOTION": 1.00271843, "ECCENTRICITY": 0.000194, "INCLINATION": 0.0162, "RA_OF_ASC_NODE": 272.8393, "ARG_OF_PERICENTER": 308.881, "MEAN_ANOMALY": 61.5794, "EPHEMERIS_TYPE": 0, "CLASSIFICATION_TYPE": "U", "NORAD_CAT_ID": 41581, "ELEMENT_SET_NO": 999, "REV_AT_EPOCH": 3478, "BSTAR": 0, "MEAN_MOTION_DOT": -1.48e-06, "MEAN_MOTION_DDOT": 0}, "tle": {"line1": "1 41581U 16035A   25343.83207917 -.00000148  00000+0  00000+0 0  9990", "line2": "2 41581   0.0162 272.8393 0001940 308.8810  61.5794  1.00271843 34786"}}, "geometry": {"type": "Point", "coordinates": [157.83967112451566, -0.0120468187970688]}}, {"type": "Feature", "properties": {"norad_id": 41747, "name": "INTELSAT 36 (IS-36)", "group": "intelsat", "lat": -0.016709063136619157, "lon": -38.5871937137497, "alt_km": 35780.56532044772, "timestamp": "2025-12-10T11:33:53.059358+00:00", "meta": {"OBJECT_NAME": "INTELSAT 36 (IS-36)", "OBJECT_ID": "2016-053A", "EPOCH": "2025-12-09T22:23:38.607072", "MEAN_MOTION": 1.00269772, "ECCENTRICITY": 0.0001443, "INCLINATION": 0.0118, "RA_OF_ASC_NODE": 5.7228, "ARG_OF_PERICENTER": 313.4761, "MEAN_ANOMALY": 164.1191, "EPHEMERIS_TYPE": 0, "CLASSIFICATION_TYPE": "U", "NORAD_CAT_ID": 41747, "ELEMENT_SET_NO": 999, "REV_AT_EPOCH": 3405, "BSTAR": 0, "MEAN_MOTION_DOT": -2.1e-07, "MEAN_MOTION_DDOT": 0}, "tle": {"line1": "1 41747U 16053A   25343.93308573 -.00000021  00000+0  00000+0 0  9995", "line2": "2 41747   0.0118   5.7228 0001443 313.4761 164.1191  1.00269772 34055"}}, "geometry": {"type": "Point", "coordinates": [-38.5871937137497, -0.016709063136619157]}}, {"type": "Feature", "properties": {"norad_id": 41945, "name": "INTELSAT 32E (IS-32E)", "group": "intelsat", "lat": 0.005072051730882473, "lon": -150.2602992363867, "alt_km": 35788.35659069772, "timestamp": "2025-12-10T11:33:53.059370+00:00", "meta": {"OBJECT_NAME": "INTELSAT 32E (IS-32E)", "OBJECT_ID": "2017-007B", "EPOCH": "2025-12-09T20:12:55.228032", "MEAN_MOTION": 1.00269426, "ECCENTRICITY": 4.39e-05, "INCLINATION": 0.0294, "RA_OF_ASC_NODE": 72.1437, "ARG_OF_PERICENTER": 284.528, "MEAN_ANOMALY": 342.2081, "EPHEMERIS_TYPE": 0, "CLASSIFICATION_TYPE": "U", "NORAD_CAT_ID": 41945, "ELEMENT_SET_NO": 999, "REV_AT_EPOCH": 3232, "BSTAR": 0, "MEAN_MOTION_DOT": -2.66e-06, "MEAN_MOTION_DDOT": 0}, "tle": {"line1": "1 41945U 17007B   25343.84230588 -.00000266  00000+0  00000+0 0  9996", "line2": "2 41945   0.0294  72.1437 0000439 284.5280 342.2081  1.00269426 32329"}}, "geometry": {"type": "Point", "coordinates": [-150.2602992363867, 0.005072051730882473]}}, {"type": "Feature", "properties": {"norad_id": 42818, "name": "INTELSAT 35E (IS-35E)", "group": "intelsat", "lat": -0.032141688834977714, "lon": -141.60402271217689, "alt_km": 35780.27078826277, "timestamp": "2025-12-10T11:33:53.059381+00:00", "meta": {"OBJECT_NAME": "INTELSAT 35E (IS-35E)", "OBJECT_ID": "2017-041A", "EPOCH": "2025-12-09T20:15:24.987744", "MEAN_MOTION": 1.0026928, "ECCENTRICITY": 0.0002289, "INCLINATION": 0.0182, "RA_OF_ASC_NODE": 336.435, "ARG_OF_PERICENTER": 289.2922, "MEAN_ANOMALY": 82.4516, "EPHEMERIS_TYPE": 0, "CLASSIFICATION_TYPE": "U", "NORAD_CAT_ID": 42818, "ELEMENT_SET_NO": 999, "REV_AT_EPOCH": 3091, "BSTAR": 0, "MEAN_MOTION_DOT": -2.35e-06, "MEAN_MOTION_DDOT": 0}, "tle": {"line1": "1 42818U 17041A   25343.84403921 -.00000235  00000+0  00000+0 0  9993", "line2": "2 42818   0.0182 336.4350 0002289 289.2922  82.4516  1.00269280 30912"}}, "geometry": {"type": "Point", "coordinates": [-141.60402271217689, -0.032141688834977714]}}, {"type": "Feature", "properties": {"norad_id": 42950, "name": "INTELSAT 37E (IS-37E)", "group": "intelsat", "lat": -0.025283557290249923, "lon": -125.09161031612199, "alt_km": 35772.9870143707, "timestamp": "2025-12-10T11:33:53.059393+00:00", "meta": {"OBJECT_NAME": "INTELSAT 37E (IS-37E)", "OBJECT_ID": "2017-059A", "EPOCH": "2025-12-09T20:20:09.534048", "MEAN_MOTION": 1.0027075, "ECCENTRICITY": 0.0003357, "INCLINATION": 0.0158, "RA_OF_ASC_NODE": 16.1299, "ARG_OF_PERICENTER": 238.0754, "MEAN_ANOMALY": 111.6646, "EPHEMERIS_TYPE": 0, "CLASSIFICATION_TYPE": "U", "NORAD_CAT_ID": 42950, "ELEMENT_SET_NO": 999, "REV_AT_EPOCH": 3016, "BSTAR": 0, "MEAN_MOTION_DOT": -1.38e-06, "MEAN_MOTION_DDOT": 0}, "tle": {"line1": "1 42950U 17059A   25343.84733257 -.00000138  00000+0  00000+0 0  9999", "line2": "2 42950   0.0158  16.1299 0003357 238.0754 111.6646  1.00270750 30168"}}, "geometry": {"type": "Point", "coordinates": [-125.09161031612199, -0.025283557290249923]}}, {"type": "Feature", "properties": {"norad_id": 43632, "name": "AZERSPACE 2 (IS-38)", "group": "intelsat", "lat": -0.025617108688817794, "lon": -61.96045971179606, "alt_km": 35780.9513734612, "timestamp": "2025-12-10T11:33:53.059405+00:00", "meta": {"OBJECT_NAME": "AZERSPACE 2 (IS-38)", "OBJECT_ID": "2018-074A", "EPOCH": "2025-12-10T00:22:38.594208", "MEAN_MOTION": 1.00270865, "ECCENTRICITY": 0.0001516, "INCLINATION": 0.0173, "RA_OF_ASC_NODE": 343.9985, "ARG_OF_PERICENTER": 280.3138, "MEAN_ANOMALY": 225.4524, "EPHEMERIS_TYPE": 0, "CLASSIFICATION_TYPE": "U", "NORAD_CAT_ID": 43632, "ELEMENT_SET_NO": 999, "REV_AT_EPOCH": 2655, "BSTAR": 0, "MEAN_MOTION_DOT": 1.39e-06, "MEAN_MOTION_DDOT": 0}, "tle": {"line1": "1 43632U 18074A   25344.01572447  .00000139  00000+0  00000+0 0  9997", "line2": "2 43632   0.0173 343.9985 0001516 280.3138 225.4524  1.00270865 26551"}}, "geometry": {"type": "Point", "coordinates": [-61.96045971179606, -0.025617108688817794]}}, {"type": "Feature", "properties": {"norad_id": 43633, "name": "HORIZONS-3E", "group": "intelsat", "lat": -0.008396150328433247, "lon": 61.93987889819236, "alt_km": 35790.77320544497, "timestamp": "2025-12-10T11:33:53.059416+00:00", "meta": {"OBJECT_NAME": "HORIZONS-3E", "OBJECT_ID": "2018-074B", "EPOCH": "2025-12-09T21:13:34.415904", "MEAN_MOTION": 1.00269183, "ECCENTRICITY": 0.0001197, "INCLINATION": 0.0426, "RA_OF_ASC_NODE": 176.4029, "ARG_OF_PERICENTER": 103.9007, "MEAN_ANOMALY": 285.9698, "EPHEMERIS_TYPE": 0, "CLASSIFICATION_TYPE": "U", "NORAD_CAT_ID": 43633, "ELEMENT_SET_NO": 999, "REV_AT_EPOCH": 2644, "BSTAR": 0, "MEAN_MOTION_DOT": -2.8e-07, "MEAN_MOTION_DDOT": 0}, "tle": {"line1": "1 43633U 18074B   25343.88442611 -.00000028  00000+0  00000+0 0  9999", "line2": "2 43633   0.0426 176.4029 0001197 103.9007 285.9698  1.00269183 26443"}}, "geometry": {"type": "Point", "coordinates": [61.93987889819236, -0.008396150328433247]}}, {"type": "Feature", "properties": {"norad_id": 44333, "name": "AT&T T-16", "group": "intelsat", "lat": 0.024308808124159843, "lon": 152.0551855367424, "alt_km": 35784.79553167235, "timestamp": "2025-12-10T11:33:53.059427+00:00", "meta": {"OBJECT_NAME": "AT&T T-16", "OBJECT_ID": "2019-034A", "EPOCH": "2025-12-10T04:31:38.802720", "MEAN_MOTION": 1.00268581, "ECCENTRICITY": 5.21e-05, "INCLINATION": 0.0259, "RA_OF_ASC_NODE": 67.7033, "ARG_OF_PERICENTER": 83.3692, "MEAN_ANOMALY": 255.1407, "EPHEMERIS_TYPE": 0, "CLASSIFICATION_TYPE": "U", "NORAD_CAT_ID": 44333, "ELEMENT_SET_NO": 999, "REV_AT_EPOCH": 2373, "BSTAR": 0, "MEAN_MOTION_DOT": -1.12e-06, "MEAN_MOTION_DDOT": 0}, "tle": {"line1": "1 44333U 19034A   25344.18864355 -.00000112  00000+0  00000+0 0  9995", "line2": "2 44333   0.0259  67.7033 0000521  83.3692 255.1407  1.00268581 23730"}}, "geometry": {"type": "Point", "coordinates": [152.0551855367424, 0.024308808124159843]}}]}